TAF AMD KMKE 172034Z 1721/1824 14013G19KT P6SM SCT028 BKN035 BKN250 FM180100 17008KT P6SM SCT035 BKN120 FM181000 17007KT P6SM VCSH BKN040 OVC080 TEMPO 1811/1815 6SM -TSRA BR BKN030CB FM181500 18009KT P6SM VCSH BKN050 FM182100 16012KT P6SM SCT050 BKN150
TAF KXYZ 051730Z 0518/0624 31008KT 3SM -SHRA BKN020 FM052300 30006KT 5SM -SHRA OVC030 PROB30 0604/0606 VRB20G35KT 1SM TSRA BKN015CB FM060600 25010KT 4SM -SHRA OVC050 TEMPO 0608/0611 2SM -SHRA OVC030 RMK NXT FCST BY 00Z=
TAF VHHH 160500Z 1606/1712 13018KT 9000 BKN020 TX30/1606Z TN26/1622Z BECMG 1606/1608 SCT015CB BKN020 TEMPO 1608/1612 17025G40KT 1000 TSRA SCT010CB BKN020 FM161200 15015KT 9999 NSW BKN020 BKN100=
TAF KGEG 152345Z 1600/1624 22010G16KT P6SM BKN150 FM160400 22014KT P6SM SKC FM161400 21016G23KT P6SM FEW250
TAF KEKO 152320Z 1600/1624 25013G23KT P6SM SCT110 FM160300 VRB06KT P6SM SCT120 FM162100 25010G20KT P6SM BKN130
TAF KBUF 152320Z 1600/1624 24009KT P6SM FEW120 FM161500 23010G16KT P6SM BKN200 FM161800 24014G21KT P6SM BKN100 FM162200 24011KT P6SM VCSH BKN050
TAF MMTC 151636Z 1518/1618 09005KT P6SM SCT030 BKN080 FM152100 04012KT P6SM SCT030CB BKN080 FM160200 04006KT P6SM SCT080 BKN220 BECMG 1605/1606 00000KT FM161200 07005KT P6SM SCT080 SCT220
TAF KHLN 152323Z 1600/1624 16009KT P6SM VCTS BKN100CB TEMPO 1600/1603 VRB30G40KT -TSRA BKN050CB FM160300 26011KT P6SM VCSH SCT060 OVC100 FM162000 27015KT P6SM SKC
TAF KCHS 152320Z 1600/1624 21009KT 6SM -TSRA BR SCT035CB BKN050 BKN150 FM160100 21005KT P6SM VCSH BKN050 FM160900 24003KT P6SM BKN060 FM161600 24005KT P6SM VCSH BKN060 PROB30 1617/1621 4SM TSRA OVC040CB
